NORAD_CAT_ID,OBJECT_NAME,OBJECT_TYPE,EPOCH,MEAN_MOTION,ECCENTRICITY,INCLINATION,RA_OF_ASC_NODE,ARG_OF_PERICENTER,MEAN_ANOMALY,BSTAR,MEAN_MOTION_DOT,MEAN_MOTION_DDOT,TLE_LINE0,TLE_LINE1,TLE_LINE2,SEMIMAJOR_AXIS,PERIOD,APOGEE,PERIGEE,DECAYED
55432.0,STARLINK-5637,PAYLOAD,2023-11-27 11:35:03,14.9830504,0.0002698,70.0013,45.2201,254.9693,105.1167,-0.00036358,-4.425e-05,0.0,0 STARLINK-5637,1 55432U 23014AT  23331.48267799 -.00004425  00000-0 -36358-3 0  9998,2 55432  70.0013  45.2201 0002698 254.9693 105.1167 14.98305040 45328,6950.27,96.109,574.01,570.26,0.0
55432.0,STARLINK-5637,PAYLOAD,2023-11-27 14:47:19,14.98310872,0.0002508,70.0011,44.8835,273.3758,86.7114,-0.00027855,-3.413e-05,0.0,0 STARLINK-5637,1 55432U 23014AT  23331.61619627 -.00003413  00000-0 -27855-3 0  9992,2 55432  70.0011  44.8835 0002508 273.3758  86.7114 14.98310872 46282,6950.252,96.108,573.86,570.374,0.0
55432.0,STARLINK-5637,PAYLOAD,2023-11-28 11:37:03,14.98323253,0.0002427,70.0028,42.6979,229.0684,131.0265,-3.3338e-05,-4.91e-06,0.0,0 STARLINK-5637,1 55432U 23014AT  23332.48406618 -.00000491  00000-0 -33338-4 0  9999,2 55432  70.0028  42.6979 0002427 229.0684 131.0265 14.98323253 45479,6950.214,96.107,573.766,570.392,0.0
55432.0,STARLINK-5637,PAYLOAD,2023-11-28 14:49:19,14.98329926,0.0002055,70.0018,42.3597,287.2852,72.8082,6.3373e-05,6.63e-06,0.0,0 STARLINK-5637,1 55432U 23014AT  23332.61758411  .00000663  00000-0  63373-4 0  9996,2 55432  70.0018  42.3597 0002055 287.2852  72.8082 14.98329926 46430,6950.193,96.107,573.486,570.63,0.0
55432.0,STARLINK-5637,PAYLOAD,2023-11-29 03:38:22,14.98325137,0.0002931,70.0022,41.0136,269.8783,90.204,0.00047502,5.579e-05,0.0,0 STARLINK-5637,1 55432U 23014AT  23333.15165412  .00005579  00000-0  47502-3 0  9995,2 55432  70.0022  41.0136 0002931 269.8783  90.2040 14.98325137 45574,6950.208,96.107,574.11,570.036,0.0
55432.0,STARLINK-5637,PAYLOAD,2023-11-29 14:51:18,14.98340406,0.0002792,70.0005,39.8329,259.7693,100.3152,0.00058739,6.924e-05,0.0,0 STARLINK-5637,1 55432U 23014AT  23333.61896454  .00006924  00000-0  58739-3 0  9992,2 55432  70.0005  39.8329 0002792 259.7693 100.3152 14.98340406 46582,6950.161,96.106,573.966,570.085,0.0
55432.0,STARLINK-5637,PAYLOAD,2023-11-30 03:40:23,14.98341313,0.000202,70.0036,38.4893,256.8585,103.2348,0.00026463,3.067e-05,0.0,0 STARLINK-5637,1 55432U 23014AT  23334.15305017  .00003067  00000-0  26463-3 0  9996,2 55432  70.0036  38.4893 0002020 256.8585 103.2348 14.98341313 45721,6950.158,96.106,573.427,570.619,0.0
55432.0,STARLINK-5637,PAYLOAD,2023-11-30 11:41:04,14.98334961,0.0002417,70.0016,37.6455,258.4172,101.6716,0.00013987,1.577e-05,0.0,0 STARLINK-5637,1 55432U 23014AT  23334.48685558  .00001577  00000-0  13987-3 0  9994,2 55432  70.0016  37.6455 0002417 258.4172 101.6716 14.98334961 45771,6950.178,96.107,573.722,570.363,0.0
55432.0,STARLINK-5637,PAYLOAD,2023-12-01 03:42:24,14.98347217,0.0002727,70.0005,35.9614,265.2205,94.8643,-4.0537e-05,-5.77e-06,0.0,0 STARLINK-5637,1 55432U 23014AT  23335.15444480 -.00000577  00000-0 -40537-4 0  9999,2 55432  70.0005  35.9614 0002727 265.2205  94.8643 14.98347217 45875,6950.14,96.106,573.9,570.109,0.0
55432.0,STARLINK-5637,PAYLOAD,2023-12-01 11:43:02,14.98364777,0.000249,70.0016,35.1202,261.5969,98.4908,0.00015746,1.788e-05,0.0,0 STARLINK-5637,1 55432U 23014AT  23335.48822537  .00001788  00000-0  15746-3 0  9994,2 55432  70.0016  35.1202 0002490 261.5969  98.4908 14.98364777 45925,6950.085,96.105,573.681,570.22,0.0
55432.0,STARLINK-5637,PAYLOAD,2023-12-01 13:19:10,14.98369164,0.0002666,70.0012,34.9516,262.1743,97.9114,0.00019588,2.247e-05,0.0,0 STARLINK-5637,1 55432U 23014AT  23335.55497963  .00002247  00000-0  19588-3 0  9992,2 55432  70.0012  34.9516 0002666 262.1743  97.9114 14.98369164 46871,6950.072,96.104,573.79,570.084,0.0
55432.0,STARLINK-5637,PAYLOAD,2023-12-02 11:45:04,14.98333396,0.0002612,70.0011,32.5958,252.6546,107.4327,4.1537e-05,4.03e-06,0.0,0 STARLINK-5637,1 55432U 23014AT  23336.48963679  .00000403  00000-0  41537-4 0  9999,2 55432  70.0011  32.5958 0002612 252.6546 107.4327 14.98333396 46073,6950.182,96.107,573.863,570.232,0.0
55432.0,STARLINK-5637,PAYLOAD,2023-12-02 13:21:12,14.98331818,0.0002624,70.0013,32.4276,251.6026,108.4848,2.6631e-05,2.25e-06,0.0,0 STARLINK-5637,1 55432U 23014AT  23336.55639692  .00000225  00000-0  26631-4 0  9992,2 55432  70.0013  32.4276 0002624 251.6026 108.4848 14.98331818 47024,6950.187,96.107,573.876,570.229,0.0
55432.0,STARLINK-5637,PAYLOAD,2023-12-03 03:46:27,14.98309106,0.0002921,70.0007,30.9121,265.1119,94.9707,-0.00023055,-2.841e-05,0.0,0 STARLINK-5637,1 55432U 23014AT  23337.15726030 -.00002841  00000-0 -23055-3 0  9996,2 55432  70.0007  30.9121 0002921 265.1119  94.9707 14.98309106 46175,6950.258,96.108,574.153,570.092,0.0
55432.0,STARLINK-5637,PAYLOAD,2023-12-03 11:47:08,14.9829762,0.0002824,70.0008,30.0703,260.792,99.2919,-0.00035966,-4.378e-05,0.0,0 STARLINK-5637,1 55432U 23014AT  23337.49107554 -.00004378  00000-0 -35966-3 0  9998,2 55432  70.0008  30.0703 0002824 260.7920  99.2919 14.98297620 46222,6950.293,96.109,574.121,570.195,0.0
55432.0,STARLINK-5637,PAYLOAD,2023-12-03 13:23:16,14.98299048,0.0003023,70.0,29.9011,267.5923,92.489,-0.00033842,-4.125e-05,0.0,0 STARLINK-5637,1 55432U 23014AT  23337.55783529 -.00004125  00000-0 -33842-3 0  9998,2 55432  70.0000  29.9011 0003023 267.5923  92.4890 14.98299048 47177,6950.289,96.109,574.255,570.053,0.0
55432.0,STARLINK-5637,PAYLOAD,2023-12-04 03:48:28,14.98308227,0.0002586,70.0028,28.3906,259.3586,100.7282,4.1584e-05,4.03e-06,0.0,0 STARLINK-5637,1 55432U 23014AT  23338.15866592  .00000403  00000-0  41584-4 0  9993,2 55432  70.0028  28.3906 0002586 259.3586 100.7282 14.98308227 46324,6950.26,96.108,573.923,570.328,0.0
55432.0,STARLINK-5637,PAYLOAD,2023-12-04 13:25:17,14.98315903,0.0002767,70.0015,27.3763,266.3074,93.7768,0.00010777,1.193e-05,0.0,0 STARLINK-5637,1 55432U 23014AT  23338.55922505  .00001193  00000-0  10777-3 0  9990,2 55432  70.0015  27.3763 0002767 266.3074  93.7768 14.98315903 47321,6950.236,96.108,574.025,570.178,0.0
55432.0,STARLINK-5637,PAYLOAD,2023-12-05 11:51:09,14.98321443,0.0002946,70.0003,25.0192,269.7519,90.3302,0.00051212,6.021e-05,0.0,0 STARLINK-5637,1 55432U 23014AT  23339.49385950  .00006021  00000-0  51212-3 0  9995,2 55432  70.0003  25.0192 0002946 269.7519  90.3302 14.98321443 46523,6950.219,96.108,574.132,570.037,0.0
55432.0,STARLINK-5637,PAYLOAD,2023-12-05 13:27:17,14.98321878,0.0002821,70.0009,24.852,265.5269,94.5567,0.0005077,5.969e-05,0.0,0 STARLINK-5637,1 55432U 23014AT  23339.56061957  .00005969  00000-0  50770-3 0  9999,2 55432  70.0009  24.8520 0002821 265.5269  94.5567 14.98321878 47475,6950.218,96.108,574.044,570.122,0.0
55432.0,STARLINK-5637,PAYLOAD,2023-12-06 03:52:29,14.98341822,0.0002881,70.0008,23.3366,271.5328,88.5501,0.00023442,2.706e-05,0.0,0 STARLINK-5637,1 55432U 23014AT  23340.16145193  .00002706  00000-0  23442-3 0  9994,2 55432  70.0008  23.3366 0002881 271.5328  88.5501 14.98341822 46623,6950.156,96.106,574.024,570.019,0.0
55432.0,STARLINK-5637,PAYLOAD,2023-12-06 11:53:08,14.98367649,0.0002599,70.0006,22.4952,262.9021,97.1842,-0.0002954,-3.619e-05,0.0,0 STARLINK-5637,1 55432U 23014AT  23340.49524291 -.00003619  00000-0 -29540-3 0  9991,2 55432  70.0006  22.4952 0002599 262.9021  97.1842 14.98367649 46676,6950.076,96.105,573.748,570.135,0.0
55432.0,STARLINK-5637,PAYLOAD,2023-12-06 13:29:17,14.98341311,0.0002954,70.0006,22.3267,271.9406,88.1414,0.00019471,2.232e-05,0.0,0 STARLINK-5637,1 55432U 23014AT  23340.56200998  .00002232  00000-0  19471-3 0  9994,2 55432  70.0006  22.3267 0002954 271.9406  88.1414 14.98341311 47625,6950.158,96.106,574.076,569.97,0.0
55432.0,STARLINK-5637,PAYLOAD,2023-12-07 03:54:30,14.9833505,0.000283,70.0016,20.8117,261.1185,98.9653,-4.2324e-05,-5.98e-06,0.0,0 STARLINK-5637,1 55432U 23014AT  23341.16285495 -.00000598  00000-0 -42324-4 0  9995,2 55432  70.0016  20.8117 0002830 261.1185  98.9653 14.98335050 46773,6950.177,96.107,574.009,570.075,0.0
55432.0,STARLINK-5637,PAYLOAD,2023-12-07 11:55:11,14.98333071,0.0002682,70.0003,19.9695,264.2845,95.8008,-0.00010349,-1.328e-05,0.0,0 STARLINK-5637,1 55432U 23014AT  23341.49665636 -.00001328  00000-0 -10349-3 0  9993,2 55432  70.0003  19.9695 0002682 264.2845  95.8008 14.98333071 47762,6950.183,96.107,573.912,570.184,0.0
55432.0,STARLINK-5637,PAYLOAD,2023-12-08 03:56:31,14.98336741,0.0003278,69.9996,18.2852,275.2411,84.8373,-5.5886e-05,-7.6e-06,0.0,0 STARLINK-5637,1 55432U 23014AT  23342.16424853 -.00000760  00000-0 -55886-4 0  9997,2 55432  69.9996  18.2852 0003278 275.2411  84.8373 14.98336741 46927,6950.172,96.107,574.315,569.759,0.0
55432.0,STARLINK-5637,PAYLOAD,2023-12-08 11:57:11,14.98335907,0.0002686,70.0008,17.4447,281.5662,78.5195,-1.7539e-05,-3.02e-06,0.0,0 STARLINK-5637,1 55432U 23014AT  23342.49804861 -.00000302  00000-0 -17539-4 0  9999,2 55432  70.0008  17.4447 0002686 281.5662  78.5195 14.98335907 47910,6950.175,96.107,573.906,570.173,0.0
55432.0,STARLINK-5637,PAYLOAD,2023-12-09 03:58:31,14.98327587,0.0003091,69.9994,15.7608,269.3491,90.7313,6.7074e-05,7.07e-06,0.0,0 STARLINK-5637,1 55432U 23014AT  23343.16564787  .00000707  00000-0  67074-4 0  9990,2 55432  69.9994  15.7608 0003091 269.3491  90.7313 14.98327587 47076,6950.2,96.107,574.214,569.917,0.0
55432.0,STARLINK-5637,PAYLOAD,2023-12-09 11:59:12,14.98328915,0.0003064,69.9995,14.9191,269.3054,90.7754,7.1836e-05,7.64e-06,0.0,0 STARLINK-5637,1 55432U 23014AT  23343.49944731  .00000764  00000-0  71836-4 0  9991,2 55432  69.9995  14.9191 0003064 269.3054  90.7754 14.98328915 48065,6950.196,96.107,574.191,569.932,0.0
55432.0,STARLINK-5637,PAYLOAD,2023-12-10 12:01:13,14.98330947,0.0003123,69.9994,12.3941,270.7831,89.297,6.8363e-08,-9.2e-07,0.0,0 STARLINK-5637,1 55432U 23014AT  23344.50084736 -.00000092  00000-0  68363-7 0  9993,2 55432  69.9994  12.3941 0003123 270.7831  89.2970 14.98330947 47277,6950.19,96.107,574.226,569.884,0.0
